QIANFAN-1               
1 60379U 24140A   25328.47272921  .00000075  00000+0  97076-4 0  9994
2 60379  88.9740 301.1728 0015525 268.8390  91.0982 13.50974423 64882
QIANFAN-2               
1 60380U 24140B   25328.42769207  .00000066  00000+0  84443-4 0  9993
2 60380  88.9727 301.0193 0010938 236.6726 123.3378 13.50972542 64937
QIANFAN-3               
1 60381U 24140C   25328.43587793  .00000074  00000+0  96664-4 0  9990
2 60381  88.9720 301.1525 0011943 251.6041 108.3812 13.50978575 64843
QIANFAN-4               
1 60382U 24140D   25328.41105819  .00000067  00000+0  85856-4 0  9997
2 60382  88.9744 301.0481 0011129 239.8758 120.1290 13.50978871 64963
QIANFAN-5               
1 60383U 24140E   25328.38647219  .00000061  00000+0  75620-4 0  9991
2 60383  88.9719 301.1831 0013201 264.8093  95.1551 13.50976187 64823
QIANFAN-6               
1 60384U 24140F   25328.40706929  .00000074  00000+0  95818-4 0  9994
2 60384  88.9746 300.9222 0011189 246.8283 113.1690 13.50976808 65027
QIANFAN-7               
1 60385U 24140G   25328.38086310  .00000524  00000+0  20651-3 0  9999
2 60385  88.9762 295.8788 0017262  98.6925 261.6226 14.27615174 67778
QIANFAN-8               
1 60386U 24140H   25328.34123159  .00000061  00000+0  76558-4 0  9993
2 60386  88.9747 301.1663 0014630 250.0386 109.9189 13.50974756 64864
